[{"OBJECT_NAME":"STARLINK-31517","OBJECT_ID":"2024-046N","EPOCH":"2026-03-09T12:17:55.279968","MEAN_MOTION":15.30186576,"ECCENTRICITY":0.00011149,"INCLINATION":53.1596,"RA_OF_ASC_NODE":156.1017,"ARG_OF_PERICENTER":79.6531,"MEAN_ANOMALY":280.4595,"EPHEMERIS_TYPE":0,"CLASSIFICATION_TYPE":"U","NORAD_CAT_ID":59213,"ELEMENT_SET_NO":999,"REV_AT_EPOCH":11301,"BSTAR":3.0409141e-5,"MEAN_MOTION_DOT":5.41e-6,"MEAN_MOTION_DDOT":0},{"OBJECT_NAME":"OBJECT N","OBJECT_ID":"2019-093N","EPOCH":"2026-03-09T21:41:56.087232","MEAN_MOTION":15.29897693,"ECCENTRICITY":0.0006278,"INCLINATION":98.0505,"RA_OF_ASC_NODE":226.9456,"ARG_OF_PERICENTER":33.3806,"MEAN_ANOMALY":326.7828,"EPHEMERIS_TYPE":0,"CLASSIFICATION_TYPE":"U","NORAD_CAT_ID":44891,"ELEMENT_SET_NO":999,"REV_AT_EPOCH":33957,"BSTAR":0.0010567776,"MEAN_MOTION_DOT":0.00030617,"MEAN_MOTION_DDOT":0}]
